[{"OBJECT_NAME":"STARLINK-32743","OBJECT_ID":"2024-254U","EPOCH":"2026-02-11T15:12:33.597216","MEAN_MOTION":15.27607891,"ECCENTRICITY":0.00022882,"INCLINATION":43.0009,"RA_OF_ASC_NODE":163.0396,"ARG_OF_PERICENTER":280.069,"MEAN_ANOMALY":79.9903,"EPHEMERIS_TYPE":0,"CLASSIFICATION_TYPE":"U","NORAD_CAT_ID":62480,"ELEMENT_SET_NO":999,"REV_AT_EPOCH":6367,"BSTAR":0.0011892725,"MEAN_MOTION_DOT":0.00032638,"MEAN_MOTION_DDOT":0},{"OBJECT_NAME":"STARLINK-32753","OBJECT_ID":"2024-254V","EPOCH":"2026-02-11T15:34:46.108128","MEAN_MOTION":15.27603978,"ECCENTRICITY":0.00012285,"INCLINATION":43.0012,"RA_OF_ASC_NODE":163.1542,"ARG_OF_PERICENTER":262.6267,"MEAN_ANOMALY":97.4445,"EPHEMERIS_TYPE":0,"CLASSIFICATION_TYPE":"U","NORAD_CAT_ID":62481,"ELEMENT_SET_NO":999,"REV_AT_EPOCH":6367,"BSTAR":0.00094705141,"MEAN_MOTION_DOT":0.00025909,"MEAN_MOTION_DDOT":0},{"OBJECT_NAME":"STARLINK-32699","OBJECT_ID":"2024-254W","EPOCH":"2026-02-11T15:37:46.293600","MEAN_MOTION":15.27609244,"ECCENTRICITY":0.00022519,"INCLINATION":43.0047,"RA_OF_ASC_NODE":166.6386,"ARG_OF_PERICENTER":280.1125,"MEAN_ANOMALY":79.9473,"EPHEMERIS_TYPE":0,"CLASSIFICATION_TYPE":"U","NORAD_CAT_ID":62482,"ELEMENT_SET_NO":999,"REV_AT_EPOCH":6348,"BSTAR":0.001414998,"MEAN_MOTION_DOT":0.00038917,"MEAN_MOTION_DDOT":0},{"OBJECT_NAME":"STARLINK-32713","OBJECT_ID":"2025-003A","EPOCH":"2026-02-11T13:17:15.146592","MEAN_MOTION":15.27604855,"ECCENTRICITY":0.00016069,"INCLINATION":43.0036,"RA_OF_ASC_NODE":76.6439,"ARG_OF_PERICENTER":267.8052,"MEAN_ANOMALY":92.2616,"EPHEMERIS_TYPE":0,"CLASSIFICATION_TYPE":"U","NORAD_CAT_ID":62487,"ELEMENT_SET_NO":999,"REV_AT_EPOCH":6265,"BSTAR":0.0011113844,"MEAN_MOTION_DOT":0.0003047,"MEAN_MOTION_DDOT":0},{"OBJECT_NAME":"STARLINK-32732","OBJECT_ID":"2025-003B","EPOCH":"2026-02-11T12:29:07.862496","MEAN_MOTION":15.27627237,"ECCENTRICITY":0.00032828,"INCLINATION":43.0042,"RA_OF_ASC_NODE":76.3908,"ARG_OF_PERICENTER":291.4159,"MEAN_ANOMALY":68.6343,"EPHEMERIS_TYPE":0,"CLASSIFICATION_TYPE":"U","NORAD_CAT_ID":62488,"ELEMENT_SET_NO":999,"REV_AT_EPOCH":6255,"BSTAR":0.0013181262,"MEAN_MOTION_DOT":0.00036244,"MEAN_MOTION_DDOT":0},{"OBJECT_NAME":"STARLINK-32328","OBJECT_ID":"2025-003C","EPOCH":"2026-02-11T10:31:08.433120","MEAN_MOTION":15.27614552,"ECCENTRICITY":0.0002317,"INCLINATION":43.0021,"RA_OF_ASC_NODE":77.4862,"ARG_OF_PERICENTER":255.7435,"MEAN_ANOMALY":104.316,"EPHEMERIS_TYPE":0,"CLASSIFICATION_TYPE":"U","NORAD_CAT_ID":62489,"ELEMENT_SET_NO":999,"REV_AT_EPOCH":6265,"BSTAR":0.0010486727,"MEAN_MOTION_DOT":0.00028739,"MEAN_MOTION_DDOT":0},{"OBJECT_NAME":"STARLINK-32332","OBJECT_ID":"2025-003D","EPOCH":"2026-02-11T02:23:43.085472","MEAN_MOTION":15.27590122,"ECCENTRICITY":0.00015955,"INCLINATION":43.0018,"RA_OF_ASC_NODE":79.2545,"ARG_OF_PERICENTER":280.3258,"MEAN_ANOMALY":79.7414,"EPHEMERIS_TYPE":0,"CLASSIFICATION_TYPE":"U","NORAD_CAT_ID":62490,"ELEMENT_SET_NO":999,"REV_AT_EPOCH":6258,"BSTAR":0.0010682757,"MEAN_MOTION_DOT":0.0002926,"MEAN_MOTION_DDOT":0},{"OBJECT_NAME":"STARLINK-32717","OBJECT_ID":"2025-003E","EPOCH":"2026-02-11T11:20:52.097280","MEAN_MOTION":15.27637447,"ECCENTRICITY":0.00010457,"INCLINATION":42.9994,"RA_OF_ASC_NODE":76.8911,"ARG_OF_PERICENTER":231.0914,"MEAN_ANOMALY":128.9845,"EPHEMERIS_TYPE":0,"CLASSIFICATION_TYPE":"U","NORAD_CAT_ID":62491,"ELEMENT_SET_NO":999,"REV_AT_EPOCH":6266,"BSTAR":0.0011029906,"MEAN_MOTION_DOT":0.00030268,"MEAN_MOTION_DDOT":0},{"OBJECT_NAME":"STARLINK-32757","OBJECT_ID":"2025-003F","EPOCH":"2026-02-11T10:23:43.962144","MEAN_MOTION":15.27619763,"ECCENTRICITY":0.00023074,"INCLINATION":43.0026,"RA_OF_ASC_NODE":77.4476,"ARG_OF_PERICENTER":254.942,"MEAN_ANOMALY":105.1177,"EPHEMERIS_TYPE":0,"CLASSIFICATION_TYPE":"U","NORAD_CAT_ID":62492,"ELEMENT_SET_NO":999,"REV_AT_EPOCH":6253,"BSTAR":0.001548561,"MEAN_MOTION_DOT":0.00042651,"MEAN_MOTION_DDOT":0},{"OBJECT_NAME":"STARLINK-32731","OBJECT_ID":"2025-003G","EPOCH":"2026-02-11T13:50:33.960480","MEAN_MOTION":15.27619882,"ECCENTRICITY":0.00014826,"INCLINATION":42.9997,"RA_OF_ASC_NODE":76.8114,"ARG_OF_PERICENTER":280.064,"MEAN_ANOMALY":80.0044,"EPHEMERIS_TYPE":0,"CLASSIFICATION_TYPE":"U","NORAD_CAT_ID":62493,"ELEMENT_SET_NO":999,"REV_AT_EPOCH":6267,"BSTAR":0.0010687762,"MEAN_MOTION_DOT":0.00029301,"MEAN_MOTION_DDOT":0},{"OBJECT_NAME":"STARLINK-32694","OBJECT_ID":"2025-003H","EPOCH":"2026-02-11T11:06:05.132160","MEAN_MOTION":15.27605904,"ECCENTRICITY":0.0002007,"INCLINATION":43.0041,"RA_OF_ASC_NODE":76.8119,"ARG_OF_PERICENTER":263.3301,"MEAN_ANOMALY":96.7322,"EPHEMERIS_TYPE":0,"CLASSIFICATION_TYPE":"U","NORAD_CAT_ID":62494,"ELEMENT_SET_NO":999,"REV_AT_EPOCH":6266,"BSTAR":0.001361813,"MEAN_MOTION_DOT":0.00037433,"MEAN_MOTION_DDOT":0},{"OBJECT_NAME":"STARLINK-32708","OBJECT_ID":"2025-003J","EPOCH":"2026-02-11T10:18:11.778336","MEAN_MOTION":15.2759695,"ECCENTRICITY":0.00015567,"INCLINATION":43.0007,"RA_OF_ASC_NODE":77.4244,"ARG_OF_PERICENTER":274.398,"MEAN_ANOMALY":85.6694,"EPHEMERIS_TYPE":0,"CLASSIFICATION_TYPE":"U","NORAD_CAT_ID":62495,"ELEMENT_SET_NO":999,"REV_AT_EPOCH":6253,"BSTAR":0.0015333922,"MEAN_MOTION_DOT":0.00042197,"MEAN_MOTION_DDOT":0},{"OBJECT_NAME":"STARLINK-32718","OBJECT_ID":"2025-003K","EPOCH":"2026-02-11T03:09:45.792000","MEAN_MOTION":15.27584578,"ECCENTRICITY":9.246e-5,"INCLINATION":42.9956,"RA_OF_ASC_NODE":78.6285,"ARG_OF_PERICENTER":223.4431,"MEAN_ANOMALY":136.6348,"EPHEMERIS_TYPE":0,"CLASSIFICATION_TYPE":"U","NORAD_CAT_ID":62496,"ELEMENT_SET_NO":999,"REV_AT_EPOCH":6249,"BSTAR":0.00087313216,"MEAN_MOTION_DOT":0.00023846,"MEAN_MOTION_DDOT":0},{"OBJECT_NAME":"STARLINK-32729","OBJECT_ID":"2025-003L","EPOCH":"2026-02-11T03:20:51.732096","MEAN_MOTION":15.27590006,"ECCENTRICITY":0.00012749,"INCLINATION":42.9958,"RA_OF_ASC_NODE":78.6784,"ARG_OF_PERICENTER":168.0245,"MEAN_ANOMALY":192.0637,"EPHEMERIS_TYPE":0,"CLASSIFICATION_TYPE":"U","NORAD_CAT_ID":62497,"ELEMENT_SET_NO":999,"REV_AT_EPOCH":6261,"BSTAR":0.0010277235,"MEAN_MOTION_DOT":0.00028135,"MEAN_MOTION_DDOT":0},{"OBJECT_NAME":"STARLINK-32739","OBJECT_ID":"2025-003M","EPOCH":"2026-02-11T11:33:50.440320","MEAN_MOTION":15.27607557,"ECCENTRICITY":0.00022871,"INCLINATION":43.0061,"RA_OF_ASC_NODE":76.9562,"ARG_OF_PERICENTER":260.7776,"MEAN_ANOMALY":99.2817,"EPHEMERIS_TYPE":0,"CLASSIFICATION_TYPE":"U","NORAD_CAT_ID":62498,"ELEMENT_SET_NO":999,"REV_AT_EPOCH":6261,"BSTAR":0.00093784224,"MEAN_MOTION_DOT":0.00025657,"MEAN_MOTION_DDOT":0},{"OBJECT_NAME":"STARLINK-32714","OBJECT_ID":"2025-003N","EPOCH":"2026-02-11T10:40:23.350080","MEAN_MOTION":15.2760224,"ECCENTRICITY":0.00022658,"INCLINATION":43.0025,"RA_OF_ASC_NODE":77.5383,"ARG_OF_PERICENTER":264.3459,"MEAN_ANOMALY":95.7134,"EPHEMERIS_TYPE":0,"CLASSIFICATION_TYPE":"U","NORAD_CAT_ID":62499,"ELEMENT_SET_NO":999,"REV_AT_EPOCH":6265,"BSTAR":0.0010251016,"MEAN_MOTION_DOT":0.00028074,"MEAN_MOTION_DDOT":0}]
