STARLINK-32743          
1 62480U 24254U   26042.63372219  .00032638  00000+0  11893-2 0  9999
2 62480  43.0009 163.0396 0002288 280.0690  79.9903 15.27607891 63676
STARLINK-32753          
1 62481U 24254V   26042.64914477  .00025909  00000+0  94705-3 0  9996
2 62481  43.0012 163.1542 0001228 262.6267  97.4445 15.27603978 63672
STARLINK-32699          
1 62482U 24254W   26042.65123025  .00038917  00000+0  14150-2 0  9997
2 62482  43.0047 166.6386 0002251 280.1125  79.9473 15.27609244 63487
STARLINK-32713          
1 62487U 25003A   26042.55364753  .00030470  00000+0  11114-2 0  9992
2 62487  43.0036  76.6439 0001606 267.8052  92.2616 15.27604855 62651
STARLINK-32732          
1 62488U 25003B   26042.52022989  .00036244  00000+0  13181-2 0  9993
2 62488  43.0042  76.3908 0003282 291.4159  68.6343 15.27627237 62552
STARLINK-32328          
1 62489U 25003C   26042.43829205  .00028739  00000+0  10487-2 0  9996
2 62489  43.0021  77.4862 0002317 255.7435 104.3160 15.27614552 62651
STARLINK-32332          
1 62490U 25003D   26042.09980423  .00029260  00000+0  10683-2 0  9998
2 62490  43.0018  79.2545 0001595 280.3258  79.7414 15.27590122 62586
STARLINK-32717          
1 62491U 25003E   26042.47282520  .00030268  00000+0  11030-2 0  9991
2 62491  42.9994  76.8911 0001045 231.0914 128.9845 15.27637447 62666
STARLINK-32757          
1 62492U 25003F   26042.43314771  .00042651  00000+0  15486-2 0  9990
2 62492  43.0026  77.4476 0002307 254.9420 105.1177 15.27619763 62538
STARLINK-32731          
1 62493U 25003G   26042.57678195  .00029301  00000+0  10688-2 0  9995
2 62493  42.9997  76.8114 0001482 280.0640  80.0044 15.27619882 62674
STARLINK-32694          
1 62494U 25003H   26042.46255940  .00037433  00000+0  13618-2 0  9994
2 62494  43.0041  76.8119 0002007 263.3301  96.7322 15.27605904 62666
STARLINK-32708          
1 62495U 25003J   26042.42930299  .00042197  00000+0  15334-2 0  9998
2 62495  43.0007  77.4244 0001556 274.3980  85.6694 15.27596950 62533
STARLINK-32718          
1 62496U 25003K   26042.13178000  .00023846  00000+0  87313-3 0  9998
2 62496  42.9956  78.6285 0000924 223.4431 136.6348 15.27584578 62498
STARLINK-32729          
1 62497U 25003L   26042.13948764  .00028135  00000+0  10277-2 0  9991
2 62497  42.9958  78.6784 0001274 168.0245 192.0637 15.27590006 62615
STARLINK-32739          
1 62498U 25003M   26042.48183380  .00025657  00000+0  93784-3 0  9996
2 62498  43.0061  76.9562 0002287 260.7776  99.2817 15.27607557 62610
STARLINK-32714          
1 62499U 25003N   26042.44471470  .00028074  00000+0  10251-2 0  9996
2 62499  43.0025  77.5383 0002265 264.3459  95.7134 15.27602240 62654
